[{"OBJECT_NAME":"FENGYUN 1C DEB","OBJECT_ID":"1999-025PQ","EPOCH":"2026-03-02T11:42:47.996928","MEAN_MOTION":14.15645418,"ECCENTRICITY":0.0031051,"INCLINATION":98.5328,"RA_OF_ASC_NODE":41.8479,"ARG_OF_PERICENTER":266.3177,"MEAN_ANOMALY":218.8029,"EPHEMERIS_TYPE":0,"CLASSIFICATION_TYPE":"U","NORAD_CAT_ID":30063,"ELEMENT_SET_NO":999,"REV_AT_EPOCH":98793,"BSTAR":9.9659816e-5,"MEAN_MOTION_DOT":1.54e-6,"MEAN_MOTION_DDOT":0},{"OBJECT_NAME":"FENGYUN 1C DEB","OBJECT_ID":"1999-025PR","EPOCH":"2026-03-02T14:37:40.679040","MEAN_MOTION":14.14337015,"ECCENTRICITY":0.0064641,"INCLINATION":98.6609,"RA_OF_ASC_NODE":75.2382,"ARG_OF_PERICENTER":242.9073,"MEAN_ANOMALY":246.2145,"EPHEMERIS_TYPE":0,"CLASSIFICATION_TYPE":"U","NORAD_CAT_ID":30064,"ELEMENT_SET_NO":999,"REV_AT_EPOCH":98634,"BSTAR":0.0001867,"MEAN_MOTION_DOT":3.21e-6,"MEAN_MOTION_DDOT":0},{"OBJECT_NAME":"FENGYUN 1C DEB","OBJECT_ID":"1999-025PS","EPOCH":"2026-03-02T10:27:48.356640","MEAN_MOTION":13.86952194,"ECCENTRICITY":0.01309747,"INCLINATION":98.6963,"RA_OF_ASC_NODE":33.6666,"ARG_OF_PERICENTER":173.3131,"MEAN_ANOMALY":186.9813,"EPHEMERIS_TYPE":0,"CLASSIFICATION_TYPE":"U","NORAD_CAT_ID":30065,"ELEMENT_SET_NO":999,"REV_AT_EPOCH":96776,"BSTAR":0.00013087499,"MEAN_MOTION_DOT":1.24e-6,"MEAN_MOTION_DDOT":0},{"OBJECT_NAME":"FENGYUN 1C DEB","OBJECT_ID":"1999-025PT","EPOCH":"2026-03-02T13:58:31.882944","MEAN_MOTION":14.19170804,"ECCENTRICITY":0.0118333,"INCLINATION":98.6423,"RA_OF_ASC_NODE":55.0131,"ARG_OF_PERICENTER":32.1538,"MEAN_ANOMALY":91.7358,"EPHEMERIS_TYPE":0,"CLASSIFICATION_TYPE":"U","NORAD_CAT_ID":30066,"ELEMENT_SET_NO":999,"REV_AT_EPOCH":98969,"BSTAR":0.0002222,"MEAN_MOTION_DOT":4.56e-6,"MEAN_MOTION_DDOT":0},{"OBJECT_NAME":"FENGYUN 1C DEB","OBJECT_ID":"1999-025PU","EPOCH":"2026-03-02T16:10:54.977088","MEAN_MOTION":14.43970156,"ECCENTRICITY":0.0151259,"INCLINATION":98.7592,"RA_OF_ASC_NODE":315.1557,"ARG_OF_PERICENTER":138.2862,"MEAN_ANOMALY":278.3834,"EPHEMERIS_TYPE":0,"CLASSIFICATION_TYPE":"U","NORAD_CAT_ID":30067,"ELEMENT_SET_NO":999,"REV_AT_EPOCH":349,"BSTAR":0.00029987,"MEAN_MOTION_DOT":1.125e-5,"MEAN_MOTION_DDOT":0},{"OBJECT_NAME":"FENGYUN 1C DEB","OBJECT_ID":"1999-025PV","EPOCH":"2026-03-02T11:59:37.998240","MEAN_MOTION":14.1210888,"ECCENTRICITY":0.01908907,"INCLINATION":98.7455,"RA_OF_ASC_NODE":52.3565,"ARG_OF_PERICENTER":121.572,"MEAN_ANOMALY":240.4245,"EPHEMERIS_TYPE":0,"CLASSIFICATION_TYPE":"U","NORAD_CAT_ID":30068,"ELEMENT_SET_NO":999,"REV_AT_EPOCH":98469,"BSTAR":0.00012621025,"MEAN_MOTION_DOT":2.34e-6,"MEAN_MOTION_DDOT":0},{"OBJECT_NAME":"FENGYUN 1C DEB","OBJECT_ID":"1999-025PW","EPOCH":"2026-03-02T12:54:07.274016","MEAN_MOTION":14.05308481,"ECCENTRICITY":0.0048618,"INCLINATION":98.8122,"RA_OF_ASC_NODE":46.0783,"ARG_OF_PERICENTER":187.7318,"MEAN_ANOMALY":294.0283,"EPHEMERIS_TYPE":0,"CLASSIFICATION_TYPE":"U","NORAD_CAT_ID":30069,"ELEMENT_SET_NO":999,"REV_AT_EPOCH":97967,"BSTAR":0.00035800619,"MEAN_MOTION_DOT":5.43e-6,"MEAN_MOTION_DDOT":0},{"OBJECT_NAME":"FENGYUN 1C DEB","OBJECT_ID":"1999-025PX","EPOCH":"2026-03-02T15:40:16.469760","MEAN_MOTION":14.10742166,"ECCENTRICITY":0.0327609,"INCLINATION":98.2739,"RA_OF_ASC_NODE":120.1617,"ARG_OF_PERICENTER":89.2274,"MEAN_ANOMALY":58.8474,"EPHEMERIS_TYPE":0,"CLASSIFICATION_TYPE":"U","NORAD_CAT_ID":30070,"ELEMENT_SET_NO":999,"REV_AT_EPOCH":97005,"BSTAR":0.0011319,"MEAN_MOTION_DOT":3.31e-5,"MEAN_MOTION_DDOT":0},{"OBJECT_NAME":"FENGYUN 1C DEB","OBJECT_ID":"1999-025PY","EPOCH":"2026-03-02T19:22:18.686208","MEAN_MOTION":14.5395497,"ECCENTRICITY":0.0039392,"INCLINATION":98.6542,"RA_OF_ASC_NODE":168.6522,"ARG_OF_PERICENTER":221.5274,"MEAN_ANOMALY":265.3449,"EPHEMERIS_TYPE":0,"CLASSIFICATION_TYPE":"U","NORAD_CAT_ID":30071,"ELEMENT_SET_NO":999,"REV_AT_EPOCH":99389,"BSTAR":0.0030266,"MEAN_MOTION_DOT":0.00012849,"MEAN_MOTION_DDOT":0},{"OBJECT_NAME":"FENGYUN 1C DEB","OBJECT_ID":"1999-025PZ","EPOCH":"2026-03-02T09:36:56.040768","MEAN_MOTION":14.39666331,"ECCENTRICITY":0.00543447,"INCLINATION":99.0766,"RA_OF_ASC_NODE":219.2416,"ARG_OF_PERICENTER":40.6932,"MEAN_ANOMALY":319.8295,"EPHEMERIS_TYPE":0,"CLASSIFICATION_TYPE":"U","NORAD_CAT_ID":30072,"ELEMENT_SET_NO":999,"REV_AT_EPOCH":98316,"BSTAR":0.0029736579,"MEAN_MOTION_DOT":9.429e-5,"MEAN_MOTION_DDOT":0},{"OBJECT_NAME":"FENGYUN 1C DEB","OBJECT_ID":"1999-025QA","EPOCH":"2026-03-02T10:21:31.453056","MEAN_MOTION":14.19227316,"ECCENTRICITY":0.00547482,"INCLINATION":99.4181,"RA_OF_ASC_NODE":44.4515,"ARG_OF_PERICENTER":55.5122,"MEAN_ANOMALY":95.7418,"EPHEMERIS_TYPE":0,"CLASSIFICATION_TYPE":"U","NORAD_CAT_ID":30073,"ELEMENT_SET_NO":999,"REV_AT_EPOCH":98055,"BSTAR":0.0020209621,"MEAN_MOTION_DOT":4.253e-5,"MEAN_MOTION_DDOT":0},{"OBJECT_NAME":"FENGYUN 1C DEB","OBJECT_ID":"1999-025QB","EPOCH":"2026-03-02T15:19:45.869376","MEAN_MOTION":14.13297735,"ECCENTRICITY":0.0094014,"INCLINATION":99.12,"RA_OF_ASC_NODE":134.425,"ARG_OF_PERICENTER":285.6948,"MEAN_ANOMALY":73.3868,"EPHEMERIS_TYPE":0,"CLASSIFICATION_TYPE":"U","NORAD_CAT_ID":30074,"ELEMENT_SET_NO":999,"REV_AT_EPOCH":97790,"BSTAR":0.0013543,"MEAN_MOTION_DOT":2.602e-5,"MEAN_MOTION_DDOT":0},{"OBJECT_NAME":"FENGYUN 1C DEB","OBJECT_ID":"1999-025QC","EPOCH":"2026-03-02T16:08:24.379296","MEAN_MOTION":13.92564664,"ECCENTRICITY":0.009008,"INCLINATION":99.3472,"RA_OF_ASC_NODE":117.764,"ARG_OF_PERICENTER":322.1842,"MEAN_ANOMALY":162.8452,"EPHEMERIS_TYPE":0,"CLASSIFICATION_TYPE":"U","NORAD_CAT_ID":30075,"ELEMENT_SET_NO":999,"REV_AT_EPOCH":97177,"BSTAR":0.00020019,"MEAN_MOTION_DOT":2.2e-6,"MEAN_MOTION_DDOT":0},{"OBJECT_NAME":"FENGYUN 1C DEB","OBJECT_ID":"1999-025QD","EPOCH":"2026-03-02T10:41:49.996320","MEAN_MOTION":13.7636058,"ECCENTRICITY":0.01739334,"INCLINATION":99.2479,"RA_OF_ASC_NODE":50.8714,"ARG_OF_PERICENTER":243.6958,"MEAN_ANOMALY":270.8505,"EPHEMERIS_TYPE":0,"CLASSIFICATION_TYPE":"U","NORAD_CAT_ID":30076,"ELEMENT_SET_NO":999,"REV_AT_EPOCH":95990,"BSTAR":0.00028948461,"MEAN_MOTION_DOT":2.72e-6,"MEAN_MOTION_DDOT":0},{"OBJECT_NAME":"FENGYUN 1C DEB","OBJECT_ID":"1999-025QE","EPOCH":"2026-03-02T01:16:49.833984","MEAN_MOTION":14.07092481,"ECCENTRICITY":0.00221473,"INCLINATION":98.7552,"RA_OF_ASC_NODE":79.217,"ARG_OF_PERICENTER":43.3249,"MEAN_ANOMALY":20.3623,"EPHEMERIS_TYPE":0,"CLASSIFICATION_TYPE":"U","NORAD_CAT_ID":30077,"ELEMENT_SET_NO":999,"REV_AT_EPOCH":98228,"BSTAR":0.00013953971,"MEAN_MOTION_DOT":1.91e-6,"MEAN_MOTION_DDOT":0},{"OBJECT_NAME":"FENGYUN 1C DEB","OBJECT_ID":"1999-025QF","EPOCH":"2026-03-02T19:00:05.741568","MEAN_MOTION":14.23703614,"ECCENTRICITY":0.0050582,"INCLINATION":98.8258,"RA_OF_ASC_NODE":141.9292,"ARG_OF_PERICENTER":53.1199,"MEAN_ANOMALY":58.7746,"EPHEMERIS_TYPE":0,"CLASSIFICATION_TYPE":"U","NORAD_CAT_ID":30078,"ELEMENT_SET_NO":999,"REV_AT_EPOCH":98252,"BSTAR":0.0016514,"MEAN_MOTION_DOT":3.777e-5,"MEAN_MOTION_DDOT":0}]
