FENGYUN 1C DEB          
1 30063U 99025PQ  26061.48805552  .00000154  00000+0  99660-4 0  9992
2 30063  98.5328  41.8479 0031051 266.3177 218.8029 14.15645418987939
FENGYUN 1C DEB          
1 30064U 99025PR  26061.60949860  .00000321  00000+0  18670-3 0  9995
2 30064  98.6609  75.2382 0064641 242.9073 246.2145 14.14337015986341
FENGYUN 1C DEB          
1 30065U 99025PS  26061.43597635  .00000124  00000+0  13087-3 0  9994
2 30065  98.6963  33.6666 0130974 173.3131 186.9813 13.86952194967769
FENGYUN 1C DEB          
1 30066U 99025PT  26061.58231346  .00000456  00000+0  22220-3 0  9992
2 30066  98.6423  55.0131 0118333  32.1538  91.7358 14.19170804989694
FENGYUN 1C DEB          
1 30067U 99025PU  26061.67424742  .00001125  00000+0  29987-3 0  9998
2 30067  98.7592 315.1557 0151259 138.2862 278.3834 14.43970156  3499
FENGYUN 1C DEB          
1 30068U 99025PV  26061.49974535  .00000234  00000+0  12621-3 0  9996
2 30068  98.7455  52.3565 0190890 121.5720 240.4245 14.12108880984698
FENGYUN 1C DEB          
1 30069U 99025PW  26061.53758419  .00000543  00000+0  35801-3 0  9991
2 30069  98.8122  46.0783 0048618 187.7318 294.0283 14.05308481979670
FENGYUN 1C DEB          
1 30070U 99025PX  26061.65296840  .00003310  00000+0  11319-2 0  9993
2 30070  98.2739 120.1617 0327609  89.2274  58.8474 14.10742166970056
FENGYUN 1C DEB          
1 30071U 99025PY  26061.80716072  .00012849  00000+0  30266-2 0  9994
2 30071  98.6542 168.6522 0039392 221.5274 265.3449 14.53954970993894
FENGYUN 1C DEB          
1 30072U 99025PZ  26061.40064862  .00009429  00000+0  29737-2 0  9995
2 30072  99.0766 219.2416 0054344  40.6932 319.8295 14.39666331983166
FENGYUN 1C DEB          
1 30073U 99025QA  26061.43161404  .00004253  00000+0  20210-2 0  9996
2 30073  99.4181  44.4515 0054748  55.5122  95.7418 14.19227316980555
FENGYUN 1C DEB          
1 30074U 99025QB  26061.63872534  .00002602  00000+0  13543-2 0  9999
2 30074  99.1200 134.4250 0094014 285.6948  73.3868 14.13297735977905
FENGYUN 1C DEB          
1 30075U 99025QC  26061.67250439  .00000220  00000+0  20019-3 0  9999
2 30075  99.3472 117.7640 0090080 322.1842 162.8452 13.92564664971771
FENGYUN 1C DEB          
1 30076U 99025QD  26061.44571755  .00000272  00000+0  28948-3 0  9998
2 30076  99.2479  50.8714 0173933 243.6958 270.8505 13.76360580959904
FENGYUN 1C DEB          
1 30077U 99025QE  26061.05335456  .00000191  00000+0  13954-3 0  9993
2 30077  98.7552  79.2170 0022147  43.3249  20.3623 14.07092481982283
FENGYUN 1C DEB          
1 30078U 99025QF  26061.79173312  .00003777  00000+0  16514-2 0  9993
2 30078  98.8258 141.9292 0050582  53.1199  58.7746 14.23703614982520
